[{"OBJECT_NAME":"ORBCOMM FM19","OBJECT_ID":"1998-046C","EPOCH":"2026-03-09T00:07:17.563296","MEAN_MOTION":14.39270127,"ECCENTRICITY":0.00018158,"INCLINATION":44.9959,"RA_OF_ASC_NODE":359.683,"ARG_OF_PERICENTER":187.4459,"MEAN_ANOMALY":272.3467,"EPHEMERIS_TYPE":0,"CLASSIFICATION_TYPE":"U","NORAD_CAT_ID":25415,"ELEMENT_SET_NO":999,"REV_AT_EPOCH":44234,"BSTAR":0.00058926699,"MEAN_MOTION_DOT":1.703e-5,"MEAN_MOTION_DDOT":0},{"OBJECT_NAME":"SL-8 R\/B","OBJECT_ID":"1974-071B","EPOCH":"2026-03-09T13:19:42.519072","MEAN_MOTION":14.38187805,"ECCENTRICITY":0.002129,"INCLINATION":74.0447,"RA_OF_ASC_NODE":116.5476,"ARG_OF_PERICENTER":316.6321,"MEAN_ANOMALY":43.3157,"EPHEMERIS_TYPE":0,"CLASSIFICATION_TYPE":"U","NORAD_CAT_ID":7434,"ELEMENT_SET_NO":999,"REV_AT_EPOCH":69425,"BSTAR":0.00010628,"MEAN_MOTION_DOT":2.97e-6,"MEAN_MOTION_DDOT":0}]
